[{"OBJECT_NAME":"STARLINK-32450","OBJECT_ID":"2024-210L","EPOCH":"2026-03-08T14:04:59.288448","MEAN_MOTION":15.27587636,"ECCENTRICITY":0.00022291,"INCLINATION":42.9994,"RA_OF_ASC_NODE":178.9286,"ARG_OF_PERICENTER":261.1082,"MEAN_ANOMALY":98.9517,"EPHEMERIS_TYPE":0,"CLASSIFICATION_TYPE":"U","NORAD_CAT_ID":61969,"ELEMENT_SET_NO":999,"REV_AT_EPOCH":7469,"BSTAR":0.0012966884,"MEAN_MOTION_DOT":0.00035602,"MEAN_MOTION_DDOT":0},{"OBJECT_NAME":"ARIANE 42P+3 R\/B","OBJECT_ID":"1996-022B","EPOCH":"2026-03-09T08:29:42.703008","MEAN_MOTION":3.21075038,"ECCENTRICITY":0.6570436,"INCLINATION":6.8815,"RA_OF_ASC_NODE":59.3356,"ARG_OF_PERICENTER":277.1842,"MEAN_ANOMALY":17.754,"EPHEMERIS_TYPE":0,"CLASSIFICATION_TYPE":"U","NORAD_CAT_ID":23847,"ELEMENT_SET_NO":999,"REV_AT_EPOCH":30312,"BSTAR":0.0030833,"MEAN_MOTION_DOT":0.00011084,"MEAN_MOTION_DDOT":0}]
